*******************************************************************************
Ephemeris / WWW_USER Mon Jul 15 19:05:00 2024 Pasadena, USA      / Horizons    
*******************************************************************************
Target body name: (2018 RD5)                      {source: JPL#11}
Center body name: Earth (399)                     {source: DE441}
Center-site name: Gemini South Obs., Cerro Pachon
*******************************************************************************
Start time      : A.D. 2018-Dec-17 23:51:00.0000 UT      
Stop  time      : A.D. 2018-Dec-18 09:27:00.0000 UT      
Step-size       : 1 minutes
*******************************************************************************
Target pole/equ : undefined
Target radii    : undefined                                                    
Center geodetic : 289.2634, -30.2406227, 2.71233  {E-lon(deg),Lat(deg),Alt(km)}
Center cylindric: 289.2634,5517.21435,-3194.81213 {E-lon(deg),Dxy(km),Dz(km)}
Center pole/equ : ITRF93                          {East-longitude positive}
Center radii    : 6378.137, 6378.137, 6356.752 km {Equator_a, b, pole_c}       
Target primary  : Sun
Vis. interferer : MOON (R_eq= 1737.400) km        {source: DE441}
Rel. light bend : Sun                             {source: DE441}
Rel. lght bnd GM: 1.3271E+11 km^3/s^2                                          
Small-body perts: Yes                             {source: SB441-N16}
Atmos refraction: NO (AIRLESS)
RA format       : HMS
Time format     : CAL 
Calendar mode   : Mixed Julian/Gregorian
RTS-only print  : NO       
EOP file        : eop.240715.p241008                                           
EOP coverage    : DATA-BASED 1962-JAN-20 TO 2024-JUL-15. PREDICTS-> 2024-OCT-07
Units conversion: 1 au= 149597870.700 km, c= 299792.458 km/s, 1 day= 86400.0 s 
Table cut-offs 1: Elevation (-90.0deg=NO ),Airmass (>38.000=NO), Daylight (YES)
Table cut-offs 2: Solar elongation (  0.0,180.0=NO ),Local Hour Angle( 0.0=NO )
Table cut-offs 3: RA/DEC angular rate (     0.0=NO )                           
*******************************************************************************
Initial IAU76/J2000 heliocentric ecliptic osculating elements (au, days, deg.):
  EPOCH=  2458378.5 ! 2018-Sep-17.00 (TDB)         Residual RMS= .55339        
   EC= .2891632988519429   QR= 1.009650912138325   TP= 2458360.6433297051      
   OM= 171.0145363394364   W=  163.7983400129293   IN= 8.474307805886117       
  Equivalent ICRF heliocentric cartesian coordinates (au, au/d):
   X= 1.017757009008053E+00  Y=-8.967367621791844E-02  Z=-4.840656937149759E-02
  VX= 3.309922676318766E-03 VY= 1.832358809606965E-02 VZ= 4.854018792897502E-03
Asteroid physical parameters (km, seconds, rotational period in hours):        
   GM= n.a.                RAD= n.a.               ROTPER= n.a.                
   H= 25.9                 G= .150                 B-V= n.a.                   
                           ALBEDO= n.a.            STYP= n.a.                  
*******************************************************************************
 Date__(UT)__HR:MN     R.A._________(ICRF)_________DEC
******************************************************
$$SOE
 2018-Dec-18 03:57  m  03 01 34.560508 -07 35 33.53853
 2018-Dec-18 03:58  m  03 01 34.585736 -07 35 32.61311
 2018-Dec-18 03:59  m  03 01 34.610974 -07 35 31.68766
 2018-Dec-18 04:00  m  03 01 34.636223 -07 35 30.76217
 2018-Dec-18 04:01  m  03 01 34.661483 -07 35 29.83666
 2018-Dec-18 04:02  m  03 01 34.686755 -07 35 28.91112
 2018-Dec-18 04:03  m  03 01 34.712037 -07 35 27.98555
 2018-Dec-18 04:04  m  03 01 34.737331 -07 35 27.05994
 2018-Dec-18 04:05  m  03 01 34.762636 -07 35 26.13431
 2018-Dec-18 04:06  m  03 01 34.787953 -07 35 25.20864
 2018-Dec-18 04:07  m  03 01 34.813281 -07 35 24.28295
 2018-Dec-18 04:08  m  03 01 34.838620 -07 35 23.35723
 2018-Dec-18 04:09  m  03 01 34.863971 -07 35 22.43147
 2018-Dec-18 04:10  m  03 01 34.889334 -07 35 21.50569
 2018-Dec-18 04:11  m  03 01 34.914709 -07 35 20.57987
 2018-Dec-18 04:12  m  03 01 34.940095 -07 35 19.65403
 2018-Dec-18 04:13  m  03 01 34.965494 -07 35 18.72816
 2018-Dec-18 04:14  m  03 01 34.990904 -07 35 17.80225
 2018-Dec-18 04:15  m  03 01 35.016327 -07 35 16.87632
 2018-Dec-18 04:16  m  03 01 35.041761 -07 35 15.95036
 2018-Dec-18 04:17  m  03 01 35.067208 -07 35 15.02437
 2018-Dec-18 04:18  m  03 01 35.092667 -07 35 14.09835
 2018-Dec-18 04:19  m  03 01 35.118139 -07 35 13.17230
 2018-Dec-18 04:20  m  03 01 35.143623 -07 35 12.24623
 2018-Dec-18 04:21  m  03 01 35.169119 -07 35 11.32012
 2018-Dec-18 04:22  m  03 01 35.194628 -07 35 10.39399
 2018-Dec-18 04:23  m  03 01 35.220150 -07 35 09.46782
 2018-Dec-18 04:24  m  03 01 35.245684 -07 35 08.54163
 2018-Dec-18 04:25  m  03 01 35.271231 -07 35 07.61541
 2018-Dec-18 04:26  m  03 01 35.296791 -07 35 06.68916
 2018-Dec-18 04:27  m  03 01 35.322364 -07 35 05.76289
 2018-Dec-18 04:28  m  03 01 35.347950 -07 35 04.83658
 2018-Dec-18 04:29  m  03 01 35.373549 -07 35 03.91025
 2018-Dec-18 04:30  m  03 01 35.399161 -07 35 02.98389
 2018-Dec-18 04:31  m  03 01 35.424786 -07 35 02.05750
 2018-Dec-18 04:32  m  03 01 35.450424 -07 35 01.13109
 2018-Dec-18 04:33  m  03 01 35.476076 -07 35 00.20464
 2018-Dec-18 04:34  m  03 01 35.501742 -07 34 59.27817
 2018-Dec-18 04:35  m  03 01 35.527420 -07 34 58.35168
 2018-Dec-18 04:36  m  03 01 35.553112 -07 34 57.42515
 2018-Dec-18 04:37  m  03 01 35.578818 -07 34 56.49860
 2018-Dec-18 04:38  m  03 01 35.604538 -07 34 55.57202
 2018-Dec-18 04:39  m  03 01 35.630271 -07 34 54.64541
 2018-Dec-18 04:40  m  03 01 35.656018 -07 34 53.71878
 2018-Dec-18 04:41  m  03 01 35.681779 -07 34 52.79212
 2018-Dec-18 04:42  m  03 01 35.707554 -07 34 51.86544
 2018-Dec-18 04:43  m  03 01 35.733343 -07 34 50.93873
 2018-Dec-18 04:44  m  03 01 35.759146 -07 34 50.01199
 2018-Dec-18 04:45  m  03 01 35.784963 -07 34 49.08522
 2018-Dec-18 04:46  m  03 01 35.810794 -07 34 48.15843
 2018-Dec-18 04:47  m  03 01 35.836639 -07 34 47.23162
 2018-Dec-18 04:48  m  03 01 35.862499 -07 34 46.30477
 2018-Dec-18 04:49  m  03 01 35.888374 -07 34 45.37791
 2018-Dec-18 04:50  m  03 01 35.914262 -07 34 44.45101
 2018-Dec-18 04:51  m  03 01 35.940165 -07 34 43.52409
 2018-Dec-18 04:52  m  03 01 35.966083 -07 34 42.59715
 2018-Dec-18 04:53  m  03 01 35.992016 -07 34 41.67018
 2018-Dec-18 04:54  m  03 01 36.017963 -07 34 40.74319
 2018-Dec-18 04:55  m  03 01 36.043925 -07 34 39.81617
 2018-Dec-18 04:56  m  03 01 36.069901 -07 34 38.88912
 2018-Dec-18 04:57  m  03 01 36.095893 -07 34 37.96205
 2018-Dec-18 04:58  m  03 01 36.121900 -07 34 37.03496
 2018-Dec-18 04:59  m  03 01 36.147921 -07 34 36.10784
 2018-Dec-18 05:00  m  03 01 36.173958 -07 34 35.18070
 2018-Dec-18 05:01  m  03 01 36.200010 -07 34 34.25353
 2018-Dec-18 05:02  m  03 01 36.226077 -07 34 33.32634
 2018-Dec-18 05:03  m  03 01 36.252159 -07 34 32.39913
 2018-Dec-18 05:04  m  03 01 36.278257 -07 34 31.47189
 2018-Dec-18 05:05  m  03 01 36.304370 -07 34 30.54463
 2018-Dec-18 05:06  m  03 01 36.330498 -07 34 29.61734
 2018-Dec-18 05:07  m  03 01 36.356642 -07 34 28.69003
 2018-Dec-18 05:08  m  03 01 36.382802 -07 34 27.76270
 2018-Dec-18 05:09  m  03 01 36.408977 -07 34 26.83534
 2018-Dec-18 05:10  m  03 01 36.435168 -07 34 25.90796
 2018-Dec-18 05:11  m  03 01 36.461374 -07 34 24.98056
 2018-Dec-18 05:12  m  03 01 36.487597 -07 34 24.05313
 2018-Dec-18 05:13  m  03 01 36.513835 -07 34 23.12569
 2018-Dec-18 05:14  m  03 01 36.540089 -07 34 22.19822
 2018-Dec-18 05:15  m  03 01 36.566359 -07 34 21.27072
 2018-Dec-18 05:16  m  03 01 36.592645 -07 34 20.34321
 2018-Dec-18 05:17  m  03 01 36.618948 -07 34 19.41567
 2018-Dec-18 05:18  m  03 01 36.645266 -07 34 18.48811
 2018-Dec-18 05:19  m  03 01 36.671601 -07 34 17.56053
 2018-Dec-18 05:20  m  03 01 36.697951 -07 34 16.63293
 2018-Dec-18 05:21  m  03 01 36.724318 -07 34 15.70530
 2018-Dec-18 05:22  m  03 01 36.750702 -07 34 14.77766
 2018-Dec-18 05:23  m  03 01 36.777102 -07 34 13.84999
 2018-Dec-18 05:24  m  03 01 36.803518 -07 34 12.92230
 2018-Dec-18 05:25  m  03 01 36.829951 -07 34 11.99459
 2018-Dec-18 05:26  m  03 01 36.856400 -07 34 11.06686
 2018-Dec-18 05:27  m  03 01 36.882866 -07 34 10.13910
 2018-Dec-18 05:28  m  03 01 36.909349 -07 34 09.21133
 2018-Dec-18 05:29  m  03 01 36.935849 -07 34 08.28354
 2018-Dec-18 05:30  m  03 01 36.962365 -07 34 07.35572
 2018-Dec-18 05:31  m  03 01 36.988898 -07 34 06.42789
 2018-Dec-18 05:32  m  03 01 37.015448 -07 34 05.50004
 2018-Dec-18 05:33  m  03 01 37.042015 -07 34 04.57216
 2018-Dec-18 05:34  m  03 01 37.068599 -07 34 03.64427
 2018-Dec-18 05:35  m  03 01 37.095200 -07 34 02.71635
 2018-Dec-18 05:36  m  03 01 37.121818 -07 34 01.78842
 2018-Dec-18 05:37  m  03 01 37.148453 -07 34 00.86047
 2018-Dec-18 05:38  m  03 01 37.175106 -07 33 59.93249
 2018-Dec-18 05:39  m  03 01 37.201776 -07 33 59.00450
 2018-Dec-18 05:40  m  03 01 37.228463 -07 33 58.07649
 2018-Dec-18 05:41  m  03 01 37.255167 -07 33 57.14846
 2018-Dec-18 05:42  m  03 01 37.281889 -07 33 56.22041
 2018-Dec-18 05:43  m  03 01 37.308628 -07 33 55.29235
 2018-Dec-18 05:44  m  03 01 37.335385 -07 33 54.36426
 2018-Dec-18 05:45  m  03 01 37.362159 -07 33 53.43616
 2018-Dec-18 05:46  m  03 01 37.388951 -07 33 52.50803
 2018-Dec-18 05:47  m  03 01 37.415760 -07 33 51.57989
 2018-Dec-18 05:48  m  03 01 37.442587 -07 33 50.65174
 2018-Dec-18 05:49  m  03 01 37.469432 -07 33 49.72356
 2018-Dec-18 05:50  m  03 01 37.496295 -07 33 48.79537
 2018-Dec-18 05:51  m  03 01 37.523175 -07 33 47.86716
 2018-Dec-18 05:52  m  03 01 37.550074 -07 33 46.93893
 2018-Dec-18 05:53  m  03 01 37.576990 -07 33 46.01068
 2018-Dec-18 05:54  m  03 01 37.603924 -07 33 45.08242
 2018-Dec-18 05:55  m  03 01 37.630876 -07 33 44.15414
 2018-Dec-18 05:56  m  03 01 37.657846 -07 33 43.22584
 2018-Dec-18 05:57  m  03 01 37.684835 -07 33 42.29753
 2018-Dec-18 05:58  m  03 01 37.711841 -07 33 41.36920
 2018-Dec-18 05:59  m  03 01 37.738866 -07 33 40.44086
